NORAD_CAT_ID,OBJECT_NAME,OBJECT_TYPE,EPOCH,MEAN_MOTION,ECCENTRICITY,INCLINATION,RA_OF_ASC_NODE,ARG_OF_PERICENTER,MEAN_ANOMALY,BSTAR,MEAN_MOTION_DOT,MEAN_MOTION_DDOT,TLE_LINE0,TLE_LINE1,TLE_LINE2,SEMIMAJOR_AXIS,PERIOD,APOGEE,PERIGEE,DECAYED
52992.0,STARLINK-4269,PAYLOAD,2023-01-05 04:53:31,15.08874366,0.0002876,53.2151,269.2692,25.7448,334.3687,0.000848,0.00013247,0.0,0 STARLINK-4269,1 52992U 22076G   23005.20383522  .00013247  00000-0  84800-3 0  9999,2 52992  53.2151 269.2692 0002876  25.7448 334.3687 15.08874366 27668,6917.775,95.435,541.63,537.651,0.0
52992.0,STARLINK-4269,PAYLOAD,2023-01-05 19:12:00,15.08832724,0.0002848,53.215,266.5949,26.3436,333.7701,-0.00017517,-3.075e-05,0.0,0 STARLINK-4269,1 52992U 22076G   23005.80000938 -.00003075  00000-0 -17517-3 0  9993,2 52992  53.2150 266.5949 0002848  26.3436 333.7701 15.08832724 27757,6917.903,95.438,541.738,537.797,0.0
52992.0,STARLINK-4269,PAYLOAD,2023-01-06 15:52:01,15.08844881,0.0002563,53.2145,262.7275,34.7912,325.3247,0.00097385,0.00015247,0.0,0 STARLINK-4269,1 52992U 22076G   23006.66113227  .00015247  00000-0  97385-3 0  9997,2 52992  53.2145 262.7275 0002563  34.7912 325.3247 15.08844881 28353,6917.865,95.437,541.504,537.957,0.0
52992.0,STARLINK-4269,PAYLOAD,2023-01-07 01:24:20,15.08847634,0.0002574,53.2141,260.9427,36.3605,323.7562,0.00075344,0.00011726,0.0,0 STARLINK-4269,1 52992U 22076G   23007.05857363  .00011726  00000-0  75344-3 0  9996,2 52992  53.2141 260.9427 0002574  36.3605 323.7562 15.08847634 28415,6917.857,95.437,541.503,537.941,0.0
52992.0,STARLINK-4269,PAYLOAD,2023-01-07 09:21:16,15.08834251,0.0002654,53.2146,259.4563,43.853,316.2673,0.00012712,1.735e-05,0.0,0 STARLINK-4269,1 52992U 22076G   23007.38977603  .00001735  00000-0  12712-3 0  9991,2 52992  53.2146 259.4563 0002654  43.8530 316.2673 15.08834251 28469,6917.898,95.438,541.599,537.927,0.0
52992.0,STARLINK-4269,PAYLOAD,2023-01-07 17:18:12,15.08830443,0.0002645,53.214,257.9684,38.6815,321.4366,-5.6566000000000014e-05,-1.188e-05,0.0,0 STARLINK-4269,1 52992U 22076G   23007.72097864 -.00001188  00000-0 -56566-4 0  9991,2 52992  53.2140 257.9684 0002645  38.6815 321.4366 15.08830443 28048,6917.91,95.438,541.604,537.945,0.0
52992.0,STARLINK-4269,PAYLOAD,2023-01-08 09:12:04,15.08831861,0.0002706,53.2137,254.9954,44.0028,316.1179,1.4724000000000003e-05,-5.4e-07,0.0,0 STARLINK-4269,1 52992U 22076G   23008.38338218 -.00000054  00000-0  14724-4 0  9995,2 52992  53.2137 254.9954 0002706  44.0028 316.1179 15.08831861 28145,6917.905,95.438,541.6419999999998,537.898,0.0
52992.0,STARLINK-4269,PAYLOAD,2023-01-09 09:02:50,15.08840387,0.0002174,53.2127,250.5341,45.249,314.8679,0.00012054,1.631e-05,0.0,0 STARLINK-4269,1 52992U 22076G   23009.37697914  .00001631  00000-0  12054-3 0  9990,2 52992  53.2127 250.5341 0002174  45.2490 314.8679 15.08840387 28290,6917.879,95.438,541.248,538.24,0.0
52992.0,STARLINK-4269,PAYLOAD,2023-01-09 16:59:46,15.08836937,0.0002216,53.2132,249.0481,48.6652,311.453,0.00012587,1.715e-05,0.0,0 STARLINK-4269,1 52992U 22076G   23009.70818264  .00001715  00000-0  12587-3 0  9994,2 52992  53.2132 249.0481 0002216  48.6652 311.4530 15.08836937 28349,6917.89,95.438,541.288,538.222,0.0
52992.0,STARLINK-4269,PAYLOAD,2023-01-10 02:32:05,15.08847694,0.0002371,53.2128,247.2631,49.4558,310.664,0.00027857,4.149e-05,0.0,0 STARLINK-4269,1 52992U 22076G   23010.10561919  .00004149  00000-0  27857-3 0  9992,2 52992  53.2128 247.2631 0002371  49.4558 310.6640 15.08847694 28870,6917.857,95.437,541.362,538.082,0.0
52992.0,STARLINK-4269,PAYLOAD,2023-01-10 08:53:38,15.08841982,0.0002441,53.2124,246.0736,51.6955,308.4256,0.00016063,2.269e-05,0.0,0 STARLINK-4269,1 52992U 22076G   23010.37058164  .00002269  00000-0  16063-3 0  9992,2 52992  53.2124 246.0736 0002441  51.6955 308.4256 15.08841982 28448,6917.874,95.437,541.428,538.0509999999998,0.0
52992.0,STARLINK-4269,PAYLOAD,2023-01-11 00:47:29,15.08847773,0.0002319,53.2125,243.0994,54.0126,306.108,0.00025938,3.843e-05,0.0,0 STARLINK-4269,1 52992U 22076G   23011.03297889  .00003843  00000-0  25938-3 0  9995,2 52992  53.2125 243.0994 0002319  54.0126 306.1080 15.08847773 28548,6917.857,95.437,541.326,538.117,0.0
52992.0,STARLINK-4269,PAYLOAD,2023-01-11 21:27:29,15.08847249,0.0002268,53.2127,239.2335,54.9828,305.1377,0.00024686,3.644e-05,0.0,0 STARLINK-4269,1 52992U 22076G   23011.89409710  .00003644  00000-0  24686-3 0  9995,2 52992  53.2127 239.2335 0002268  54.9828 305.1377 15.08847249 28677,6917.858,95.437,541.2919999999998,538.154,0.0
52992.0,STARLINK-4269,PAYLOAD,2023-01-12 00:38:16,15.08850036,0.0002402,53.2114,238.6391,55.2141,304.9077,0.00023475,3.451e-05,0.0,0 STARLINK-4269,1 52992U 22076G   23012.02657541  .00003451  00000-0  23475-3 0  9999,2 52992  53.2114 238.6391 0002402  55.2141 304.9077 15.08850036 29167,6917.85,95.437,541.376,538.053,0.0
52992.0,STARLINK-4269,PAYLOAD,2023-01-12 13:21:21,15.08841146,0.0002943,53.2098,236.2613,61.2058,298.9229,-1.5059e-05,-5.28e-06,0.0,0 STARLINK-4269,1 52992U 22076G   23012.55649848 -.00000528  00000-0 -15059-4 0  9992,2 52992  53.2098 236.2613 0002943  61.2058 298.9229 15.08841146 29245,6917.877,95.437,541.778,537.706,0.0
52992.0,STARLINK-4269,PAYLOAD,2023-01-12 21:18:17,15.08834046,0.0002154,53.2128,234.773,64.6447,295.4768,-5.946100000000001e-05,-1.234e-05,0.0,0 STARLINK-4269,1 52992U 22076G   23012.88770299 -.00001234  00000-0 -59461-4 0  9993,2 52992  53.2128 234.7730 0002154  64.6447 295.4768 15.08834046 28829,6917.899,95.438,541.254,538.273,0.0
52992.0,STARLINK-4269,PAYLOAD,2023-01-13 00:29:03,15.08833938,0.0002153,53.2127,234.1781,65.6541,294.4676,-1.6892e-05,-5.57e-06,0.0,0 STARLINK-4269,1 52992U 22076G   23013.02018369 -.00000557  00000-0 -16892-4 0  9991,2 52992  53.2127 234.1781 0002153  65.6541 294.4676 15.08833938 29314,6917.899,95.438,541.253,538.274,0.0
52992.0,STARLINK-4269,PAYLOAD,2023-01-13 14:47:31,15.08843152,0.0001949,53.2128,231.5017,65.9887,294.1309,-8.900600000000001e-05,-1.705e-05,0.0,0 STARLINK-4269,1 52992U 22076G   23013.61634136 -.00001705  00000-0 -89006-4 0  9995,2 52992  53.2128 231.5017 0001949  65.9887 294.1309 15.08843152 28932,6917.871,95.437,541.0840000000001,538.387,0.0
52992.0,STARLINK-4269,PAYLOAD,2023-01-13 21:09:04,15.08848335,0.0002008999999999,53.2129,230.3121,70.2089,289.9119,2.4721e-05,1.05e-06,0.0,0 STARLINK-4269,1 52992U 22076G   23013.88129914  .00000105  00000-0  24721-4 0  9991,2 52992  53.2129 230.3121 0002009  70.2089 289.9119 15.08848335 28970,6917.855,95.437,541.11,538.33,0.0
52992.0,STARLINK-4269,PAYLOAD,2023-01-14 00:19:50,15.08845148,0.0001968,53.2128,229.7173,69.8629,290.2575,0.00017607,2.516e-05,0.0,0 STARLINK-4269,1 52992U 22076G   23014.01378172  .00002516  00000-0  17607-3 0  9991,2 52992  53.2128 229.7173 0001968  69.8629 290.2575 15.08845148 29460,6917.865,95.437,541.091,538.368,0.0
52992.0,STARLINK-4269,PAYLOAD,2023-01-14 14:38:19,15.08835383,0.0001953,53.2124,227.0407,71.572,288.5484,0.00019738,2.854e-05,0.0,0 STARLINK-4269,1 52992U 22076G   23014.60994806  .00002854  00000-0  19738-3 0  9996,2 52992  53.2124 227.0407 0001953  71.5720 288.5484 15.08835383 29552,6917.895,95.438,541.111,538.408,0.0
52992.0,STARLINK-4269,PAYLOAD,2023-01-15 12:53:43,15.08837179,0.0001986,53.211000000000006,222.8772,76.6423,283.47900000000004,6.1123e-05,6.85e-06,0.0,0 STARLINK-4269,1 52992U 22076G   23015.53730784  .00000685  00000-0  61123-4 0  9998,2 52992  53.2110 222.8772 0001986  76.6423 283.4790 15.08837179 29220,6917.889,95.438,541.128,538.38,0.0
52992.0,STARLINK-4269,PAYLOAD,2023-01-15 19:15:15,15.0883704,0.0001784,53.2118,221.688,78.5284,281.5908,2.1117e-05,4.8e-07,0.0,0 STARLINK-4269,1 52992U 22076G   23015.80226799  .00000048  00000-0  21117-4 0  9996,2 52992  53.2118 221.6880 0001784  78.5284 281.5908 15.08837040 29730,6917.889,95.438,540.989,538.52,0.0
52992.0,STARLINK-4269,PAYLOAD,2023-01-15 20:50:39,15.08839707,0.0001715,53.2112,221.3909,79.0049,281.1136,7.106300000000001e-05,8.43e-06,0.0,0 STARLINK-4269,1 52992U 22076G   23015.86850711  .00000843  00000-0  71063-4 0  9997,2 52992  53.2112 221.3909 0001715  79.0049 281.1136 15.08839707 29272,6917.880999999999,95.438,540.933,538.56,0.0
52992.0,STARLINK-4269,PAYLOAD,2023-01-16 14:19:53,15.08835494,0.0001779,53.2123,218.1196,83.60799999999999,276.5115,2.2089e-05,6.3e-07,0.0,0 STARLINK-4269,1 52992U 22076G   23016.59715016  .00000063  00000-0  22089-4 0  9994,2 52992  53.2123 218.1196 0001779  83.6080 276.5115 15.08835494 29388,6917.894,95.438,540.99,538.528,0.0
52992.0,STARLINK-4269,PAYLOAD,2023-01-16 17:30:39,15.08838713,0.0001817,53.2129,217.5248,85.7864,274.3336,6.3172e-05,7.17e-06,0.0,0 STARLINK-4269,1 52992U 22076G   23016.72962894  .00000717  00000-0  63172-4 0  9991,2 52992  53.2129 217.5248 0001817  85.7864 274.3336 15.08838713 29402,6917.884,95.438,541.006,538.492,0.0
52992.0,STARLINK-4269,PAYLOAD,2023-01-16 23:52:12,15.08842367,0.0001724,53.2127,216.3351,82.7149,277.4039,0.00010673,1.411e-05,0.0,0 STARLINK-4269,1 52992U 22076G   23016.99458731  .00001411  00000-0  10673-3 0  9999,2 52992  53.2127 216.3351 0001724  82.7149 277.4039 15.08842367 29912,6917.8730000000005,95.437,540.931,538.5459999999999,0.0
52992.0,STARLINK-4269,PAYLOAD,2023-01-17 14:10:40,15.08835176,0.0001644,53.2119,213.6581,84.5245,275.5934,6.8225e-05,7.98e-06,0.0,0 STARLINK-4269,1 52992U 22076G   23017.59075223  .00000798  00000-0  68225-4 0  9991,2 52992  53.2119 213.6581 0001644  84.5245 275.5934 15.08835176 29537,6917.895,95.438,540.8969999999999,538.623,0.0
52992.0,STARLINK-4269,PAYLOAD,2023-01-18 12:26:04,15.0884459,0.0001626999999999,53.212,209.4941,85.1319,274.9859,0.00018048,2.586e-05,0.0,0 STARLINK-4269,1 52992U 22076G   23018.51810681  .00002586  00000-0  18048-3 0  9993,2 52992  53.2120 209.4941 0001627  85.1319 274.9859 15.08844590 30140,6917.866,95.437,540.857,538.606,0.0
